KUIPER-00008            
1 63724U 25088A   25247.60946497  .00007927  00000+0  66741-3 0  9991
2 63724  51.8895 215.3839 0010711 189.1564 170.9213 14.98996812 20142
KUIPER-00009            
1 63725U 25088B   25247.60348426  .00003833  00000+0  53160-3 0  9993
2 63725  51.9015 209.4755 0012202 204.9114 155.1261 14.79906595 20228
KUIPER-00010            
1 63726U 25088C   25247.16465518  .00025184  00000+0  68891-3 0  9997
2 63726  51.8623 199.5064 0008613 203.3412 156.7185 15.37170127 19948
KUIPER-00011            
1 63727U 25088D   25247.91670139 -.00199289  00000+0 -95430-2 0  9996
2 63727  51.8700 197.2984 0009680 206.3947 300.0031 15.19305585  5736
KUIPER-00012            
1 63728U 25088E   25247.91670139 -.00620670  00000+0 -19599-1 0  9991
2 63728  51.8570 196.1682 0010321 208.7456 160.8580 15.34401683  4586
KUIPER-00013            
1 63729U 25088F   25247.60211376  .00098706  00000+0  12851-1 0  9993
2 63729  51.9080 210.9425 0007245 177.4134 182.6867 14.79713145 20013
KUIPER-00014            
1 63730U 25088G   25247.60049753 -.00006716  00000+0 -85109-3 0  9993
2 63730  51.9008 211.9167 0008255 197.2049 162.8635 14.79976975 19817
KUIPER-00015            
1 63731U 25088H   25247.34575998  .00001971  00000+0  27893-3 0  9992
2 63731  51.8986 225.2023 0010303 179.7004 180.3967 14.81268135 20061
